MAKERSAT 0              
1 43016U 17073D   26072.36976660  .00021863  00000+0  65873-3 0  9993
2 43016  97.4782 314.3612 0114909 252.6516 106.2129 15.27978897451817
SIRION PATHFINDER-2     
1 43759U 18099B   26073.08104126  .00006826  00000+0  38353-3 0  9991
2 43759  97.4389 124.4043 0007333 268.1302  91.9089 15.13598425398230
CORVUS BC4              
1 43767U 18099K   26072.82953438  .00004903  00000+0  29177-3 0  9997
2 43767  97.4202 118.5959 0007596 341.3945  18.7007 15.11661488397998
M2 PATHFINDER           
1 45727U 20037E   26073.26929124  .00004009  00000+0  29257-3 0  9990
2 45727  97.8172 263.4406 0012702 112.4536 247.8036 15.04217706311222
NETSAT-4                
1 46504U 20068U   26072.94299937  .00022628  00000+0  55789-3 0  9990
2 46504  97.8642  73.7636 0003953 318.3328  41.7615 15.40565037301090
NETSAT-3                
1 46505U 20068V   26072.93709434  .00023482  00000+0  60442-3 0  9999
2 46505  97.8678  72.1085 0004382 341.9436  18.1651 15.39238914301019
NETSAT-1                
1 46506U 20068W   26073.25678467  .00018589  00000+0  59972-3 0  9995
2 46506  97.8746  67.8398 0005100   5.0790 355.0502 15.32195485300750
NETSAT-2                
1 46507U 20068X   26072.95790146  .00028189  00000+0  66597-3 0  9999
2 46507  97.8655  73.3934 0003757   8.9719 351.1593 15.41810787301046
GREENCUBE (IO-117)      
1 53109U 22080E   26072.15662715 -.00000003  00000+0  00000+0 0  9992
2 53109  70.1608 331.6501 0009033 310.6857  49.3018  6.42583056 85890
SITRO-AIS 5 (KATYS)     
1 57176U 23091L   26073.26674618  .00015271  00000+0  57344-3 0  9990
2 57176  97.5176 136.3742 0013227  80.8406 279.4328 15.27209199149846
SITRO-AIS 6 (CHIRKIN)   
1 57192U 23091AC  26073.30870285  .00008474  00000+0  34678-3 0  9993
2 57192  97.5180 135.9932 0014120  81.8768 278.4070 15.24484820149824
SITRO-AIS 8 (ANOKHIN)   
1 57193U 23091AD  26073.30743951  .00017576  00000+0  61498-3 0  9996
2 57193  97.5168 137.6476 0012373  78.5627 281.7002 15.29509083149936
SITRO-AIS 7 (FARTUSHNIY)
1 57194U 23091AE  26073.29400498  .00007535  00000+0  31107-3 0  9999
2 57194  97.5180 135.8479 0014020  82.8451 277.4379 15.24229337149810
SITRO-AIS 10 (BURDAEV)  
1 57199U 23091AK  26073.31629156  .00023116  00000+0  68207-3 0  9995
2 57199  97.5182 141.8133 0007855  61.0592 299.1438 15.34966790150196
SITRO-AIS 9 (SHCHUKIN)  
1 57201U 23091AM  26073.31564869  .00021878  00000+0  65358-3 0  9995
2 57201  97.5180 141.6091 0008098  60.6783 299.5268 15.34585322150188
SITRO-AIS 12 (SMIRENNIY)
1 57204U 23091AQ  26073.25802501  .00023788  00000+0  70482-3 0  9995
2 57204  97.5192 141.9616 0007687  56.3024 303.8951 15.34829972150194
SITRO-AIS 11 (SHEFFER)  
1 57208U 23091AU  26073.29536314  .00023785  00000+0  69704-3 0  9991
2 57208  97.5188 142.1922 0007524  56.4364 303.7597 15.35177897150215
SITRO-AIS 25            
1 59066U 24039R   26073.27853911  .00004904  00000+0  39044-3 0  9997
2 59066  95.3935 169.8996 0144884 300.1342  58.5590 14.92673356110563
SITRO-AIS 26            
1 59067U 24039S   26073.26750729  .00004453  00000+0  35634-3 0  9990
2 59067  95.3934 169.8083 0145249 300.6367  58.0603 14.92483985110554
SITRO-AIS 27            
1 59068U 24039T   26073.26364481  .00004605  00000+0  36527-3 0  9998
2 59068  95.3935 170.0350 0144372 299.4470  59.2413 14.92880108110575
SITRO-AIS 28            
1 59071U 24039U   26073.31030709  .00003990  00000+0  31672-3 0  9993
2 59071  95.3936 170.1094 0144285 299.1603  59.5248 14.92915581110588
GRBBETA                 
1 60237U 24128C   26072.29300574  .00005853  00000+0  40414-3 0  9998
2 60237  61.9899 192.5119 0051123 114.7393 245.9033 15.05843278 91829
OOV-CUBE (TUBSAT-30)    
1 60240U 24128F   26072.82291193  .00003760  00000+0  29030-3 0  9993
2 60240  61.9947 197.9838 0054165 113.1993 247.4816 15.02286526 91787
ROBUSTA-3A (MEDITERRAN*)
1 60243U 24128J   26073.03474595  .00011571  00000+0  69563-3 0  9993
2 60243  61.9862 184.3559 0051312 109.0339 251.6324 15.10179267 92048
LASARSAT                
1 62391U 24247Q   26073.28980069  .00038386  00000+0  93019-3 0  9992
2 62391  44.9755  73.1375 0002158  85.8847 274.2287 15.40492839 68651
CROCUBE                 
1 62394U 24247T   26072.40892954  .00036311  00000+0  84900-3 0  9998
2 62394  44.9732  76.6258 0001785  59.1506 300.9557 15.41595731 68538
